{
  "type": "FeatureCollection",
  "features": [
    {
      "type": "Feature",
      "properties": {
        "norad_id": 57400,
        "name": "TIANMU-1 08",
        "group": "weather",
        "lat": 46.706209597477724,
        "lon": 43.0805847480257,
        "alt_km": 472.3230144402287,
        "timestamp": "2025-12-27T13:34:48.933210+00:00",
        "meta_object_name": "TIANMU-1 08",
        "meta_object_id": "2023-101B",
        "meta_epoch": "2025-12-27T07:05:20.342976",
        "meta_mean_motion": 15.28262355,
        "meta_eccentricity": 0.00067869,
        "meta_inclination": 97.2846,
        "meta_ra_of_asc_node": 50.6195,
        "meta_arg_of_pericenter": 42.5008,
        "meta_mean_anomaly": 317.6757,
        "meta_ephemeris_type": 0,
        "meta_classification_type": "U",
        "meta_norad_cat_id": 57400,
        "meta_element_set_no": 999,
        "meta_rev_at_epoch": 13537,
        "meta_bstar": 0.00029589963,
        "meta_mean_motion_dot": 8.081e-05,
        "meta_mean_motion_ddot": 0,
        "tle_line1": "1 57400U 23101B   25361.29537434  .00008081  00000+0  29590-3 0  9991",
        "tle_line2": "2 57400  97.2846  50.6195 0006786  42.5008 317.6757 15.28262355135370"
      },
      "geometry": {
        "type": "Point",
        "coordinates": [
          43.0805847480257,
          46.706209597477724
        ]
      }
    },
    {
      "type": "Feature",
      "properties": {
        "norad_id": 57401,
        "name": "TIANMU-1 09",
        "group": "weather",
        "lat": 57.45570030481455,
        "lon": -118.05397121015422,
        "alt_km": 474.6208431738896,
        "timestamp": "2025-12-27T13:34:48.933221+00:00",
        "meta_object_name": "TIANMU-1 09",
        "meta_object_id": "2023-101C",
        "meta_epoch": "2025-12-27T06:45:51.653376",
        "meta_mean_motion": 15.2829939,
        "meta_eccentricity": 0.00060531,
        "meta_inclination": 97.2803,
        "meta_ra_of_asc_node": 50.1121,
        "meta_arg_of_pericenter": 43.5731,
        "meta_mean_anomaly": 316.5987,
        "meta_ephemeris_type": 0,
        "meta_classification_type": "U",
        "meta_norad_cat_id": 57401,
        "meta_element_set_no": 999,
        "meta_rev_at_epoch": 13537,
        "meta_bstar": 0.00031064907,
        "meta_mean_motion_dot": 8.496e-05,
        "meta_mean_motion_ddot": 0,
        "tle_line1": "1 57401U 23101C   25361.28184784  .00008496  00000+0  31065-3 0  9997",
        "tle_line2": "2 57401  97.2803  50.1121 0006053  43.5731 316.5987 15.28299390135371"
      },
      "geometry": {
        "type": "Point",
        "coordinates": [
          -118.05397121015422,
          57.45570030481455
        ]
      }
    },
    {
      "type": "Feature",
      "properties": {
        "norad_id": 57402,
        "name": "TIANMU-1 10",
        "group": "weather",
        "lat": -65.90709158360873,
        "lon": 67.88629451036617,
        "alt_km": 489.6879042545943,
        "timestamp": "2025-12-27T13:34:48.933231+00:00",
        "meta_object_name": "TIANMU-1 10",
        "meta_object_id": "2023-101D",
        "meta_epoch": "2025-12-27T07:35:13.986240",
        "meta_mean_motion": 15.28291644,
        "meta_eccentricity": 0.00077574,
        "meta_inclination": 97.2883,
        "meta_ra_of_asc_node": 51.0108,
        "meta_arg_of_pericenter": 40.548,
        "meta_mean_anomaly": 319.6337,
        "meta_ephemeris_type": 0,
        "meta_classification_type": "U",
        "meta_norad_cat_id": 57402,
        "meta_element_set_no": 999,
        "meta_rev_at_epoch": 13537,
        "meta_bstar": 0.00029565158,
        "meta_mean_motion_dot": 8.083e-05,
        "meta_mean_motion_ddot": 0,
        "tle_line1": "1 57402U 23101D   25361.31613410  .00008083  00000+0  29565-3 0  9999",
        "tle_line2": "2 57402  97.2883  51.0108 0007757  40.5480 319.6337 15.28291644135372"
      },
      "geometry": {
        "type": "Point",
        "coordinates": [
          67.88629451036617,
          -65.90709158360873
        ]
      }
    },
    {
      "type": "Feature",
      "properties": {
        "norad_id": 57490,
        "name": "FENGYUN 3F",
        "group": "weather",
        "lat": -3.1276762026065255,
        "lon": -110.86102069106883,
        "alt_km": 828.7550605883307,
        "timestamp": "2025-12-27T13:34:48.933245+00:00",
        "meta_object_name": "FENGYUN 3F",
        "meta_object_id": "2023-111A",
        "meta_epoch": "2025-12-27T07:38:50.390592",
        "meta_mean_motion": 14.1989742,
        "meta_eccentricity": 8.71e-05,
        "meta_inclination": 98.7064,
        "meta_ra_of_asc_node": 69.3756,
        "meta_arg_of_pericenter": 118.0284,
        "meta_mean_anomaly": 242.0981,
        "meta_ephemeris_type": 0,
        "meta_classification_type": "U",
        "meta_norad_cat_id": 57490,
        "meta_element_set_no": 999,
        "meta_rev_at_epoch": 12447,
        "meta_bstar": 5.8465385e-05,
        "meta_mean_motion_dot": 8e-07,
        "meta_mean_motion_ddot": 0,
        "tle_line1": "1 57490U 23111A   25361.31863878  .00000080  00000+0  58465-4 0  9993",
        "tle_line2": "2 57490  98.7064  69.3756 0000871 118.0284 242.0981 14.19897420124476"
      },
      "geometry": {
        "type": "Point",
        "coordinates": [
          -110.86102069106883,
          -3.1276762026065255
        ]
      }
    },
    {
      "type": "Feature",
      "properties": {
        "norad_id": 58584,
        "name": "ARKTIKA-M 2",
        "group": "weather",
        "lat": 61.80967504994333,
        "lon": -77.16995778116876,
        "alt_km": 36659.063027785625,
        "timestamp": "2025-12-27T13:34:48.933258+00:00",
        "meta_object_name": "ARKTIKA-M 2",
        "meta_object_id": "2023-198A",
        "meta_epoch": "2025-12-26T18:51:48.111264",
        "meta_mean_motion": 2.00602169,
        "meta_eccentricity": 0.68661981,
        "meta_inclination": 63.2254,
        "meta_ra_of_asc_node": 173.3631,
        "meta_arg_of_pericenter": 268.0478,
        "meta_mean_anomaly": 18.8426,
        "meta_ephemeris_type": 0,
        "meta_classification_type": "U",
        "meta_norad_cat_id": 58584,
        "meta_element_set_no": 999,
        "meta_rev_at_epoch": 1486,
        "meta_bstar": 0,
        "meta_mean_motion_dot": 2.36e-06,
        "meta_mean_motion_ddot": 0,
        "tle_line1": "1 58584U 23198A   25360.78597351  .00000236  00000+0  00000+0 0  9993",
        "tle_line2": "2 58584  63.2254 173.3631 6866198 268.0478  18.8426  2.00602169 14861"
      },
      "geometry": {
        "type": "Point",
        "coordinates": [
          -77.16995778116876,
          61.80967504994333
        ]
      }
    },
    {
      "type": "Feature",
      "properties": {
        "norad_id": 58645,
        "name": "TIANMU-1 11",
        "group": "weather",
        "lat": -72.30803278618492,
        "lon": 44.833864712782805,
        "alt_km": 494.7216949017884,
        "timestamp": "2025-12-27T13:34:48.933273+00:00",
        "meta_object_name": "TIANMU-1 11",
        "meta_object_id": "2023-205A",
        "meta_epoch": "2025-12-27T07:36:13.183200",
        "meta_mean_motion": 15.24777206,
        "meta_eccentricity": 0.00076051,
        "meta_inclination": 97.3601,
        "meta_ra_of_asc_node": 20.6842,
        "meta_arg_of_pericenter": 247.77,
        "meta_mean_anomaly": 112.2732,
        "meta_ephemeris_type": 0,
        "meta_classification_type": "U",
        "meta_norad_cat_id": 58645,
        "meta_element_set_no": 999,
        "meta_rev_at_epoch": 11131,
        "meta_bstar": 0.00026717465,
        "meta_mean_motion_dot": 6.557e-05,
        "meta_mean_motion_ddot": 0,
        "tle_line1": "1 58645U 23205A   25361.31681925  .00006557  00000+0  26717-3 0  9990",
        "tle_line2": "2 58645  97.3601  20.6842 0007605 247.7700 112.2732 15.24777206111319"
      },
      "geometry": {
        "type": "Point",
        "coordinates": [
          44.833864712782805,
          -72.30803278618492
        ]
      }
    },
    {
      "type": "Feature",
      "properties": {
        "norad_id": 58646,
        "name": "TIANMU-1 12",
        "group": "weather",
        "lat": 47.27403081251254,
        "lon": -151.22681345721656,
        "alt_km": 487.84090048928374,
        "timestamp": "2025-12-27T13:34:48.933284+00:00",
        "meta_object_name": "TIANMU-1 12",
        "meta_object_id": "2023-205B",
        "meta_epoch": "2025-12-27T06:42:05.929920",
        "meta_mean_motion": 15.24664129,
        "meta_eccentricity": 0.00061457,
        "meta_inclination": 97.3589,
        "meta_ra_of_asc_node": 20.448,
        "meta_arg_of_pericenter": 225.6683,
        "meta_mean_anomaly": 134.4052,
        "meta_ephemeris_type": 0,
        "meta_classification_type": "U",
        "meta_norad_cat_id": 58646,
        "meta_element_set_no": 999,
        "meta_rev_at_epoch": 11129,
        "meta_bstar": 0.00030048901,
        "meta_mean_motion_dot": 7.357e-05,
        "meta_mean_motion_ddot": 0,
        "tle_line1": "1 58646U 23205B   25361.27923530  .00007357  00000+0  30049-3 0  9999",
        "tle_line2": "2 58646  97.3589  20.4480 0006145 225.6683 134.4052 15.24664129111291"
      },
      "geometry": {
        "type": "Point",
        "coordinates": [
          -151.22681345721656,
          47.27403081251254
        ]
      }
    }
  ]
}